{
"type": "FeatureCollection",
"crs": { "type": "name", "properties": { "name": "urn:ogc:def:crs:OGC:1.3:CRS84" } },
                                                                                
"features": [
{ "type": "Feature", "properties": { "id": 1.000000, "osm_id": 207145654.000000, "name": "OnlineenilnO", "type": "Suite Unit 66", "addr:stree": "Diplomatic Quarter Alfazary", "addr:postc": "11321", "addr:city": "Riyadh" }, "geometry": { "type": "Point", "coordinates": [ 46.629585360490978, 24.681170323662769 ] } },
{ "type": "Feature", "properties": { "id": 2.000000, "osm_id": 554163586.000000, "name": "Embassy of Australia", "type": "PO 94000", "addr:stree": "Abdullah Bin Hazafa As-Shami Road", "addr:postc": "11693", "addr:city": "Riyadh" }, "geometry": { "type": "Point", "coordinates": [ 46.621687679863811, 24.675619156829015 ] } },
{ "type": "Feature", "properties": { "id": 3.000000, "osm_id": 1595368773.000000, "name": "Embassy of Singapore", "type": "PO 94378", "addr:stree": null, "addr:postc": "11693", "addr:city": "Riyadh" }, "geometry": { "type": "Point", "coordinates": [ 46.626154144607881, 24.675734827092811 ] } },
{ "type": "Feature", "properties": { "id": 4.000000, "osm_id": 2133826800.000000, "name": null, "type": "Oliya wor", "addr:stree": "هلام مسا", "addr:postc": null, "addr:city": null }, "geometry": { "type": "Point", "coordinates": [ 46.833766593960064, 24.6736519241542 ] } },
{ "type": "Feature", "properties": { "id": 5.000000, "osm_id": 2161647946.000000, "name": "Davide", "type": "69", "addr:stree": "Via Provinciale Avenza-sarzana", "addr:postc": "54033", "addr:city": "Carrara" }, "geometry": { "type": "Point", "coordinates": [ 46.745275992310177, 24.596364993381201 ] } },
{ "type": "Feature", "properties": { "id": 6.000000, "osm_id": 2672646732.000000, "name": "تموينات الحارثي", "type": "3105", "addr:stree": "شارع معاوية بن أبي سفيان", "addr:postc": "12783-8458", "addr:city": "Riyadh" }, "geometry": { "type": "Point", "coordinates": [ 46.654647586255919, 24.603611232493733 ] } },
{ "type": "Feature", "properties": { "id": 7.000000, "osm_id": 2705363551.000000, "name": null, "type": "44", "addr:stree": null, "addr:postc": null, "addr:city": null }, "geometry": { "type": "Point", "coordinates": [ 46.789725057201281, 24.69521428624904 ] } },
{ "type": "Feature", "properties": { "id": 8.000000, "osm_id": 3003135617.000000, "name": "Marks & Spencer", "type": "Hayat Mall, Gate 7", "addr:stree": "King Abdulaziz Road", "addr:postc": "12272", "addr:city": "Riyadh" }, "geometry": { "type": "Point", "coordinates": [ 46.679796145623527, 24.744681093655913 ] } },
{ "type": "Feature", "properties": { "id": 9.000000, "osm_id": 3370300859.000000, "name": "Embassy of China", "type": "PO 75231", "addr:stree": "Amr Bin Umaia Azzamri Road", "addr:postc": "11693", "addr:city": "Riyadh" }, "geometry": { "type": "Point", "coordinates": [ 46.62619856869469, 24.673562153971204 ] } },
{ "type": "Feature", "properties": { "id": 10.000000, "osm_id": 3370529298.000000, "name": "Embassy of Indonesia", "type": "PO 94343", "addr:stree": "Ibn Shamil", "addr:postc": "11693", "addr:city": "Riyadh" }, "geometry": { "type": "Point", "coordinates": [ 46.624948659293466, 24.681540217049815 ] } },
{ "type": "Feature", "properties": { "id": 11.000000, "osm_id": 3370529303.000000, "name": "Embassy of Finland", "type": "PO 94363", "addr:stree": "Ibn Shamil", "addr:postc": "11693", "addr:city": "Riyadh" }, "geometry": { "type": "Point", "coordinates": [ 46.624676666535457, 24.680251750893973 ] } },
{ "type": "Feature", "properties": { "id": 12.000000, "osm_id": 3370529305.000000, "name": "Royal Norwegian Embassy", "type": "PO 94380", "addr:stree": "Ibn Shamil", "addr:postc": "11693", "addr:city": "Riyadh" }, "geometry": { "type": "Point", "coordinates": [ 46.624838269628661, 24.679083481229668 ] } },
{ "type": "Feature", "properties": { "id": 13.000000, "osm_id": 3370529304.000000, "name": "Embassy of Denmark", "type": "PO 94398", "addr:stree": "Ibn Shamil", "addr:postc": "11693", "addr:city": "Riyadh" }, "geometry": { "type": "Point", "coordinates": [ 46.624752438940156, 24.679607517816066 ] } },
{ "type": "Feature", "properties": { "id": 14.000000, "osm_id": 3370529724.000000, "name": "Embassy of Canada", "type": "PO 94321", "addr:stree": "Omaya Abu Al Salt", "addr:postc": "11693", "addr:city": "Riyadh" }, "geometry": { "type": "Point", "coordinates": [ 46.627273296319593, 24.681877169557396 ] } },
{ "type": "Feature", "properties": { "id": 15.000000, "osm_id": 3370846015.000000, "name": "Embassy of Afghanistan", "type": "PO 93337", "addr:stree": null, "addr:postc": null, "addr:city": "Riyadh" }, "geometry": { "type": "Point", "coordinates": [ 46.623053762443021, 24.680790120534823 ] } },
{ "type": "Feature", "properties": { "id": 16.000000, "osm_id": 3370529717.000000, "name": "Embassy of the Philippines", "type": "PO 94366", "addr:stree": "Omaya Abu Al Salt", "addr:postc": "11693", "addr:city": "Riyadh" }, "geometry": { "type": "Point", "coordinates": [ 46.627570937701279, 24.680835634269044 ] } },
{ "type": "Feature", "properties": { "id": 17.000000, "osm_id": 3370607157.000000, "name": "Arab Urban Development Institute", "type": "8144", "addr:stree": "Abdullah Bin Hazafa As-Shami Road", "addr:postc": "12521", "addr:city": "Riyadh" }, "geometry": { "type": "Point", "coordinates": [ 46.62163135347447, 24.676255091822782 ] } },
{ "type": "Feature", "properties": { "id": 18.000000, "osm_id": 3370922016.000000, "name": "Embassy of Senegal", "type": "PO 94352", "addr:stree": null, "addr:postc": "11693", "addr:city": "Riyadh" }, "geometry": { "type": "Point", "coordinates": [ 46.626161772139767, 24.678462968937733 ] } },
{ "type": "Feature", "properties": { "id": 19.000000, "osm_id": 3370529715.000000, "name": "Embassy of Cameroon", "type": "PO 94336", "addr:stree": "Omaya Abu Al Salt", "addr:postc": "11693", "addr:city": "Riyadh" }, "geometry": { "type": "Point", "coordinates": [ 46.626118270062278, 24.681536780469514 ] } },
{ "type": "Feature", "properties": { "id": 20.000000, "osm_id": 3370607144.000000, "name": "Embassy of Kazakhstan", "type": "PO 94012", "addr:stree": "Amr Bin Umaia Azzamri Road", "addr:postc": "11693", "addr:city": "Riyadh" }, "geometry": { "type": "Point", "coordinates": [ 46.627511845283919, 24.673852419278091 ] } },
{ "type": "Feature", "properties": { "id": 21.000000, "osm_id": 3370846002.000000, "name": "Embassy of Lebanon", "type": "PO 94350", "addr:stree": "Abu Bakar Al Karkhi", "addr:postc": "11693", "addr:city": "Riyadh" }, "geometry": { "type": "Point", "coordinates": [ 46.627331466727611, 24.677883444152314 ] } },
{ "type": "Feature", "properties": { "id": 22.000000, "osm_id": 3370529347.000000, "name": "Embassy of Pakistan", "type": "PO 94007", "addr:stree": "8th Roundabout", "addr:postc": null, "addr:city": "Riyadh" }, "geometry": { "type": "Point", "coordinates": [ 46.621085943034984, 24.676976270771831 ] } },
{ "type": "Feature", "properties": { "id": 23.000000, "osm_id": 3645300298.000000, "name": "Elixir Bunn Coffee Roasters", "type": "7179", "addr:stree": "Salim Ibn Maqil, An Nakhil", "addr:postc": "12393 4057", "addr:city": "Riyadh" }, "geometry": { "type": "Point", "coordinates": [ 46.611246426899584, 24.734329862331776 ] } },
{ "type": "Feature", "properties": { "id": 24.000000, "osm_id": 3631527750.000000, "name": "Dr Soliman Al-Kharashi Medical Center", "type": "An Nuzhah", "addr:stree": "Abi Bakr As Siddiq Rd", "addr:postc": "12471", "addr:city": "Riyadh" }, "geometry": { "type": "Point", "coordinates": [ 46.699961160640328, 24.75129055958433 ] } },
{ "type": "Feature", "properties": { "id": 25.000000, "osm_id": 3925020931.000000, "name": "OSTAR Holdings - Riyadh", "type": "7272", "addr:stree": "Pr. Met'eb Bin Abdulaziz St.", "addr:postc": "12821", "addr:city": "Riyadh" }, "geometry": { "type": "Point", "coordinates": [ 46.760286053056227, 24.69979281703851 ] } },
{ "type": "Feature", "properties": { "id": 26.000000, "osm_id": 4108127492.000000, "name": "tamimi market أسواق التميمي", "type": "أسواق التميمي", "addr:stree": null, "addr:postc": null, "addr:city": null }, "geometry": { "type": "Point", "coordinates": [ 46.633795590455037, 24.713676266179021 ] } },
{ "type": "Feature", "properties": { "id": 27.000000, "osm_id": 4103491089.000000, "name": "الهرم بلازا", "type": "Al Haram Plaza", "addr:stree": "Prince Saad Ibn Abdulrahman Alawal", "addr:postc": null, "addr:city": null }, "geometry": { "type": "Point", "coordinates": [ 46.847862524345999, 24.713289525166573 ] } },
{ "type": "Feature", "properties": { "id": 28.000000, "osm_id": 4103405391.000000, "name": "مستشفى الجزيرة", "type": "Aljazeera Hospital", "addr:stree": "Hasaan Bin Thabit", "addr:postc": null, "addr:city": null }, "geometry": { "type": "Point", "coordinates": [ 46.847341924339872, 24.714087147072576 ] } },
{ "type": "Feature", "properties": { "id": 29.000000, "osm_id": 4101097590.000000, "name": "شركة الزاهد للتراكتورات والمعدات الثقيلة", "type": "Zahid Tractors & Heavy Machinery Co", "addr:stree": "شارع علي بن أبي طالب", "addr:postc": null, "addr:city": null }, "geometry": { "type": "Point", "coordinates": [ 46.76286742777657, 24.631725057747047 ] } },
{ "type": "Feature", "properties": { "id": 30.000000, "osm_id": 4089957764.000000, "name": "مركز السفريات لصيانة السيارات", "type": "الصناعية", "addr:stree": "شارع الجمعية", "addr:postc": "١١٤٩١", "addr:city": "الرياض" }, "geometry": { "type": "Point", "coordinates": [ 46.744265470063596, 24.637399019462293 ] } },
{ "type": "Feature", "properties": { "id": 31.000000, "osm_id": 4102464798.000000, "name": "شركة الزاهد للتراكتورات والمعدات الثقيلة المحدودة", "type": "Zahid Tractors & Heavy Machinery Co", "addr:stree": "Khurais Road", "addr:postc": null, "addr:city": null }, "geometry": { "type": "Point", "coordinates": [ 46.947434924000589, 24.877030758032475 ] } },
{ "type": "Feature", "properties": { "id": 32.000000, "osm_id": 3969827673.000000, "name": "BEST WESTERN PLUS Riyadh Hotel", "type": "63987", "addr:stree": "Abdulaziz Bin Musa'ed Bin Jalawi St.", "addr:postc": "11526", "addr:city": "Riyadh" }, "geometry": { "type": "Point", "coordinates": [ 46.702089158217994, 24.679613636605382 ] } },
{ "type": "Feature", "properties": { "id": 33.000000, "osm_id": 4111180889.000000, "name": "الغرفة التجارية الصناعية", "type": "Chamber Of Commerce & Industry", "addr:stree": "Prince Bandar Ibn Abdulaziz", "addr:postc": null, "addr:city": null }, "geometry": { "type": "Point", "coordinates": [ 46.778186780749699, 24.749457269722225 ] } },
{ "type": "Feature", "properties": { "id": 34.000000, "osm_id": 4089951254.000000, "name": "مؤسسة محمد عبدالله مرضاح للتجارة", "type": "مجمع الصمان", "addr:stree": "الصمان", "addr:postc": null, "addr:city": "الرياض" }, "geometry": { "type": "Point", "coordinates": [ 46.739019823600493, 24.641381345479061 ] } },
{ "type": "Feature", "properties": { "id": 35.000000, "osm_id": 4151745691.000000, "name": "بنده", "type": "7524", "addr:stree": "شارع الشيخ محمد بن عبد اللطيف بن عبد الرحمن", "addr:postc": null, "addr:city": null }, "geometry": { "type": "Point", "coordinates": [ 46.686581631518628, 24.583422999605176 ] } },
{ "type": "Feature", "properties": { "id": 36.000000, "osm_id": 4151745693.000000, "name": "هرفي", "type": "7524", "addr:stree": "شارع الشيخ محمد بن عبد اللطيف بن عبد الرحمن", "addr:postc": null, "addr:city": null }, "geometry": { "type": "Point", "coordinates": [ 46.686774750567736, 24.582993594705581 ] } },
{ "type": "Feature", "properties": { "id": 37.000000, "osm_id": 4151974689.000000, "name": "ميد", "type": "5450", "addr:stree": "الطريق الدائري الجنوبي الفرعي", "addr:postc": null, "addr:city": null }, "geometry": { "type": "Point", "coordinates": [ 46.692169678726344, 24.585831623301118 ] } },
{ "type": "Feature", "properties": { "id": 38.000000, "osm_id": 4157492905.000000, "name": "منزل حسن عطيه", "type": "3788", "addr:stree": "3788 النبقين، طويق، الرياض 14914 6190، السعودية", "addr:postc": null, "addr:city": null }, "geometry": { "type": "Point", "coordinates": [ 46.578626993414389, 24.585594834536465 ] } },
{ "type": "Feature", "properties": { "id": 39.000000, "osm_id": 4196873529.000000, "name": "مسجد علي بن أبي طالب", "type": "1", "addr:stree": "Nahawand", "addr:postc": null, "addr:city": null }, "geometry": { "type": "Point", "coordinates": [ 46.779952680110313, 24.574633149204203 ] } },
{ "type": "Feature", "properties": { "id": 40.000000, "osm_id": 4218775489.000000, "name": "Shekshack Juice", "type": "0112391900", "addr:stree": "الشيخ عبد العزيز بن عبد الرحمن بن بشر", "addr:postc": null, "addr:city": null }, "geometry": { "type": "Point", "coordinates": [ 46.792137871848809, 24.778252040789368 ] } },
{ "type": "Feature", "properties": { "id": 41.000000, "osm_id": 4228027791.000000, "name": "My Home", "type": "Building 17", "addr:stree": "Ameer Mansoor bin Abdul Aziz", "addr:postc": "11422", "addr:city": null }, "geometry": { "type": "Point", "coordinates": [ 46.699276023874916, 24.67642323280046 ] } },
{ "type": "Feature", "properties": { "id": 42.000000, "osm_id": 4228027193.000000, "name": "Alfanar HO", "type": "b\/w exit 5 & 6", "addr:stree": "Northern Ring Road", "addr:postc": "11411", "addr:city": null }, "geometry": { "type": "Point", "coordinates": [ 46.680052128946471, 24.775357266709364 ] } },
{ "type": "Feature", "properties": { "id": 43.000000, "osm_id": 4228028193.000000, "name": "Alfanar CoE", "type": "exit 5", "addr:stree": "King Abdulaziz Road", "addr:postc": "11411", "addr:city": null }, "geometry": { "type": "Point", "coordinates": [ 46.661916791783142, 24.781017482103408 ] } },
{ "type": "Feature", "properties": { "id": 44.000000, "osm_id": 4253757591.000000, "name": "granada Village", "type": "148", "addr:stree": "Al Imam Abdullah Bin Saud Ibn Abdulaziz", "addr:postc": null, "addr:city": null }, "geometry": { "type": "Point", "coordinates": [ 46.754395251505883, 24.790051916438983 ] } },
{ "type": "Feature", "properties": { "id": 45.000000, "osm_id": 4270149194.000000, "name": "INFOFIX FUTURE TECHNOLOGIES", "type": "112445550", "addr:stree": "Al Bayan", "addr:postc": "11211", "addr:city": null }, "geometry": { "type": "Point", "coordinates": [ 46.815153991230062, 24.681462265350319 ] } },
{ "type": "Feature", "properties": { "id": 46.000000, "osm_id": 4296655590.000000, "name": "Room", "type": "5", "addr:stree": null, "addr:postc": null, "addr:city": null }, "geometry": { "type": "Point", "coordinates": [ 46.802631679345922, 24.736117387002565 ] } },
{ "type": "Feature", "properties": { "id": 47.000000, "osm_id": 4308165989.000000, "name": "صيدلية الدواء", "type": "2292", "addr:stree": null, "addr:postc": null, "addr:city": null }, "geometry": { "type": "Point", "coordinates": [ 46.692814917632631, 24.585963973552225 ] } },
{ "type": "Feature", "properties": { "id": 48.000000, "osm_id": 4308162191.000000, "name": "مسجد العريفي", "type": "2328", "addr:stree": null, "addr:postc": null, "addr:city": null }, "geometry": { "type": "Point", "coordinates": [ 46.693173998364578, 24.586202941611702 ] } },
{ "type": "Feature", "properties": { "id": 49.000000, "osm_id": 4308167592.000000, "name": "بنشر", "type": "5450", "addr:stree": null, "addr:postc": null, "addr:city": null }, "geometry": { "type": "Point", "coordinates": [ 46.69175091884378, 24.58588593803367 ] } },
{ "type": "Feature", "properties": { "id": 50.000000, "osm_id": 4308167591.000000, "name": "بترومين اكسبرس", "type": "5450", "addr:stree": null, "addr:postc": null, "addr:city": null }, "geometry": { "type": "Point", "coordinates": [ 46.691767934107247, 24.585785941928805 ] } },
{ "type": "Feature", "properties": { "id": 51.000000, "osm_id": 4308167594.000000, "name": "بيتزا ان", "type": "5032", "addr:stree": null, "addr:postc": null, "addr:city": null }, "geometry": { "type": "Point", "coordinates": [ 46.687973949454772, 24.583779984861337 ] } },
{ "type": "Feature", "properties": { "id": 52.000000, "osm_id": 4308175589.000000, "name": "نفط", "type": "5450", "addr:stree": null, "addr:postc": null, "addr:city": null }, "geometry": { "type": "Point", "coordinates": [ 46.691944959902251, 24.585823995769232 ] } },
{ "type": "Feature", "properties": { "id": 53.000000, "osm_id": 4308167696.000000, "name": "الشواية", "type": "4974", "addr:stree": null, "addr:postc": null, "addr:city": null }, "geometry": { "type": "Point", "coordinates": [ 46.687280933700372, 24.583474967404836 ] } },
{ "type": "Feature", "properties": { "id": 54.000000, "osm_id": 4308187289.000000, "name": "مغسلة سيارات", "type": "5450", "addr:stree": null, "addr:postc": null, "addr:city": null }, "geometry": { "type": "Point", "coordinates": [ 46.691857955747302, 24.585992974937195 ] } },
{ "type": "Feature", "properties": { "id": 55.000000, "osm_id": 4308167593.000000, "name": "بروستد البيه", "type": "5012", "addr:stree": null, "addr:postc": null, "addr:city": null }, "geometry": { "type": "Point", "coordinates": [ 46.68779298416527, 24.583682922422582 ] } },
{ "type": "Feature", "properties": { "id": 56.000000, "osm_id": 4308183789.000000, "name": "صراف الأهلي", "type": "5450", "addr:stree": null, "addr:postc": null, "addr:city": null }, "geometry": { "type": "Point", "coordinates": [ 46.692021989592433, 24.585673959702405 ] } },
{ "type": "Feature", "properties": { "id": 57.000000, "osm_id": 4316531605.000000, "name": "منزل خاص", "type": "2403", "addr:stree": "شارع الامير عبدالله بن جلوي بن تركي", "addr:postc": "12631", "addr:city": null }, "geometry": { "type": "Point", "coordinates": [ 46.706158488389718, 24.651140479163018 ] } },
{ "type": "Feature", "properties": { "id": 58.000000, "osm_id": 4341062690.000000, "name": "Home", "type": "10", "addr:stree": "Amro Bin Shas St.", "addr:postc": null, "addr:city": null }, "geometry": { "type": "Point", "coordinates": [ 46.711365578098196, 24.698436876562141 ] } },
{ "type": "Feature", "properties": { "id": 59.000000, "osm_id": 4395500890.000000, "name": null, "type": "1", "addr:stree": "Imam Muslim Road", "addr:postc": "0000", "addr:city": null }, "geometry": { "type": "Point", "coordinates": [ 46.708533249196847, 24.522629642620899 ] } },
{ "type": "Feature", "properties": { "id": 60.000000, "osm_id": 4405678193.000000, "name": "الخليج ستور", "type": "05", "addr:stree": "Exit 5, King Abdulaziz Road - North Ring Road (west)", "addr:postc": null, "addr:city": null }, "geometry": { "type": "Point", "coordinates": [ 46.671083576369824, 24.763808848154952 ] } },
{ "type": "Feature", "properties": { "id": 61.000000, "osm_id": 4416504291.000000, "name": "مطعم بيتزا روما", "type": "0114643798", "addr:stree": null, "addr:postc": null, "addr:city": null }, "geometry": { "type": "Point", "coordinates": [ 46.692280152210166, 24.700638634887753 ] } },
{ "type": "Feature", "properties": { "id": 62.000000, "osm_id": 4457482789.000000, "name": "Alfanar housing f11", "type": "37", "addr:stree": "Al Tall St.", "addr:postc": null, "addr:city": null }, "geometry": { "type": "Point", "coordinates": [ 46.774113678721562, 24.704618781609696 ] } },
{ "type": "Feature", "properties": { "id": 63.000000, "osm_id": 4503854193.000000, "name": "الاميرسعودبن مشعل", "type": "5016", "addr:stree": "مدخل خاص", "addr:postc": null, "addr:city": null }, "geometry": { "type": "Point", "coordinates": [ 46.605387225124218, 24.696393871482627 ] } },
{ "type": "Feature", "properties": { "id": 64.000000, "osm_id": 4515136290.000000, "name": "شركة حراسات أمنية 05009025309", "type": "110", "addr:stree": "طريق الملك عبدالله حي الواحة", "addr:postc": "00966", "addr:city": null }, "geometry": { "type": "Point", "coordinates": [ 46.69709605849755, 24.761791491699139 ] } },
{ "type": "Feature", "properties": { "id": 65.000000, "osm_id": 4895284021.000000, "name": "دواجن العطاس", "type": "3508", "addr:stree": "Prince Mashare Bin S'Aud Bin Abdul Aziz", "addr:postc": null, "addr:city": null }, "geometry": { "type": "Point", "coordinates": [ 46.75237965524974, 24.612101429856239 ] } },
{ "type": "Feature", "properties": { "id": 66.000000, "osm_id": 5051856010.000000, "name": "Mauritius Embassy", "type": "84", "addr:stree": "Abdullah Bin Hazafa As-Shami Road", "addr:postc": "11693", "addr:city": "Riyadh" }, "geometry": { "type": "Point", "coordinates": [ 46.623901759587085, 24.684548063003632 ] } },
{ "type": "Feature", "properties": { "id": 67.000000, "osm_id": 5081439081.000000, "name": "Tea Park for bubble tea", "type": "12232", "addr:stree": "عبد العزيز بن مساعد بن جلوي", "addr:postc": null, "addr:city": "riadyh" }, "geometry": { "type": "Point", "coordinates": [ 46.702702378254173, 24.694812625448947 ] } }
]
}
